{"type": "FeatureCollection", "features": [ {"type": "Feature", "properties": {"norad_id": 30569, "name": "FENGYUN 1C DEB", "group": "fengyun-1c-debris", "lat": 33.929709825568516, "lon": 117.34437461030811, "alt_km": 645.8081970985468, "timestamp": "2025-12-10T11:33:53.662631+00:00", "meta": {"OBJECT_NAME": "FENGYUN 1C DEB", "OBJECT_ID": "1999-025ALK", "EPOCH": "2025-12-09T20:44:29.391648", "MEAN_MOTION": 14.73454328, "ECCENTRICITY": 0.0006647, "INCLINATION": 98.7391, "RA_OF_ASC_NODE": 122.6193, "ARG_OF_PERICENTER": 101.703, "MEAN_ANOMALY": 258.4921, "EPHEMERIS_TYPE": 0, "CLASSIFICATION_TYPE": "U", "NORAD_CAT_ID": 30569, "ELEMENT_SET_NO": 999, "REV_AT_EPOCH": 98164, "BSTAR": 0.0053071, "MEAN_MOTION_DOT": 0.0003457, "MEAN_MOTION_DDOT": 0}, "tle": {"line1": "1 30569U 99025ALK 25343.86422907  .00034570  00000+0  53071-2 0  9999", "line2": "2 30569  98.7391 122.6193 0006647 101.7030 258.4921 14.73454328981641"}}, "geometry": {"type": "Point", "coordinates": [117.34437461030811, 33.929709825568516]}}, {"type": "Feature", "properties": {"norad_id": 30570, "name": "FENGYUN 1C DEB", "group": "fengyun-1c-debris", "lat": 30.96647743211242, "lon": 11.776179276607733, "alt_km": 868.278309366101, "timestamp": "2025-12-10T11:33:53.662641+00:00", "meta": {"OBJECT_NAME": "FENGYUN 1C DEB", "OBJECT_ID": "1999-025ALL", "EPOCH": "2025-12-10T01:29:12.481728", "MEAN_MOTION": 14.14260799, "ECCENTRICITY": 0.0035149, "INCLINATION": 98.7154, "RA_OF_ASC_NODE": 16.6479, "ARG_OF_PERICENTER": 219.6546, "MEAN_ANOMALY": 194.9971, "EPHEMERIS_TYPE": 0, "CLASSIFICATION_TYPE": "U", "NORAD_CAT_ID": 30570, "ELEMENT_SET_NO": 999, "REV_AT_EPOCH": 96960, "BSTAR": 0.00065639, "MEAN_MOTION_DOT": 1.217e-05, "MEAN_MOTION_DDOT": 0}, "tle": {"line1": "1 30570U 99025ALL 25344.06195002  .00001217  00000+0  65639-3 0  9993", "line2": "2 30570  98.7154  16.6479 0035149 219.6546 194.9971 14.14260799969602"}}, "geometry": {"type": "Point", "coordinates": [11.776179276607733, 30.96647743211242]}}, {"type": "Feature", "properties": {"norad_id": 30571, "name": "FENGYUN 1C DEB", "group": "fengyun-1c-debris", "lat": -3.0254420544991523, "lon": 11.225295557768577, "alt_km": 866.9364902638854, "timestamp": "2025-12-10T11:33:53.662651+00:00", "meta": {"OBJECT_NAME": "FENGYUN 1C DEB", "OBJECT_ID": "1999-025ALM", "EPOCH": "2025-12-09T21:05:41.922816", "MEAN_MOTION": 14.10691656, "ECCENTRICITY": 0.0020693, "INCLINATION": 98.7314, "RA_OF_ASC_NODE": 10.1742, "ARG_OF_PERICENTER": 242.3091, "MEAN_ANOMALY": 294.3522, "EPHEMERIS_TYPE": 0, "CLASSIFICATION_TYPE": "U", "NORAD_CAT_ID": 30571, "ELEMENT_SET_NO": 999, "REV_AT_EPOCH": 96846, "BSTAR": 0.00041931, "MEAN_MOTION_DOT": 7.08e-06, "MEAN_MOTION_DDOT": 0}, "tle": {"line1": "1 30571U 99025ALM 25343.87895744  .00000708  00000+0  41931-3 0  9995", "line2": "2 30571  98.7314  10.1742 0020693 242.3091 294.3522 14.10691656968465"}}, "geometry": {"type": "Point", "coordinates": [11.225295557768577, -3.0254420544991523]}}, {"type": "Feature", "properties": {"norad_id": 30572, "name": "FENGYUN 1C DEB", "group": "fengyun-1c-debris", "lat": -78.49965923621342, "lon": 63.53615898671618, "alt_km": 856.2678230947495, "timestamp": "2025-12-10T11:33:53.662661+00:00", "meta": {"OBJECT_NAME": "FENGYUN 1C DEB", "OBJECT_ID": "1999-025ALN", "EPOCH": "2025-12-10T01:50:47.461344", "MEAN_MOTION": 14.08917484, "ECCENTRICITY": 0.0021157, "INCLINATION": 98.7724, "RA_OF_ASC_NODE": 13.7715, "ARG_OF_PERICENTER": 301.4775, "MEAN_ANOMALY": 83.3742, "EPHEMERIS_TYPE": 0, "CLASSIFICATION_TYPE": "U", "NORAD_CAT_ID": 30572, "ELEMENT_SET_NO": 999, "REV_AT_EPOCH": 96724, "BSTAR": 0.00042385, "MEAN_MOTION_DOT": 6.91e-06, "MEAN_MOTION_DDOT": 0}, "tle": {"line1": "1 30572U 99025ALN 25344.07693821  .00000691  00000+0  42385-3 0  9996", "line2": "2 30572  98.7724  13.7715 0021157 301.4775  83.3742 14.08917484967244"}}, "geometry": {"type": "Point", "coordinates": [63.53615898671618, -78.49965923621342]}}, {"type": "Feature", "properties": {"norad_id": 30573, "name": "FENGYUN 1C DEB", "group": "fengyun-1c-debris", "lat": 13.702814297936888, "lon": -155.58301994626333, "alt_km": 872.9332855515195, "timestamp": "2025-12-10T11:33:53.662670+00:00", "meta": {"OBJECT_NAME": "FENGYUN 1C DEB", "OBJECT_ID": "1999-025ALP", "EPOCH": "2025-12-10T00:53:11.382720", "MEAN_MOTION": 14.1380831, "ECCENTRICITY": 0.0088254, "INCLINATION": 99.2264, "RA_OF_ASC_NODE": 21.6867, "ARG_OF_PERICENTER": 281.4141, "MEAN_ANOMALY": 142.1757, "EPHEMERIS_TYPE": 0, "CLASSIFICATION_TYPE": "U", "NORAD_CAT_ID": 30573, "ELEMENT_SET_NO": 999, "REV_AT_EPOCH": 96159, "BSTAR": 0.0024529, "MEAN_MOTION_DOT": 4.774e-05, "MEAN_MOTION_DDOT": 0}, "tle": {"line1": "1 30573U 99025ALP 25344.03693730  .00004774  00000+0  24529-2 0  9997", "line2": "2 30573  99.2264  21.6867 0088254 281.4141 142.1757 14.13808310961596"}}, "geometry": {"type": "Point", "coordinates": [-155.58301994626333, 13.702814297936888]}}, {"type": "Feature", "properties": {"norad_id": 30574, "name": "FENGYUN 1C DEB", "group": "fengyun-1c-debris", "lat": 35.72571119885115, "lon": 141.347742894483, "alt_km": 850.6036665394677, "timestamp": "2025-12-10T11:33:53.662680+00:00", "meta": {"OBJECT_NAME": "FENGYUN 1C DEB", "OBJECT_ID": "1999-025ALQ", "EPOCH": "2025-12-09T09:14:54.974400", "MEAN_MOTION": 13.77498297, "ECCENTRICITY": 0.02190443, "INCLINATION": 99.3025, "RA_OF_ASC_NODE": 147.0438, "ARG_OF_PERICENTER": 356.3652, "MEAN_ANOMALY": 3.5899, "EPHEMERIS_TYPE": 0, "CLASSIFICATION_TYPE": "U", "NORAD_CAT_ID": 30574, "ELEMENT_SET_NO": 999, "REV_AT_EPOCH": 93722, "BSTAR": 0.0030506009, "MEAN_MOTION_DOT": 3.583e-05, "MEAN_MOTION_DDOT": 0}, "tle": {"line1": "1 30574U 99025ALQ 25343.38535850  .00003583  00000+0  30506-2 0  9992", "line2": "2 30574  99.3025 147.0438 0219044 356.3652   3.5899 13.77498297937220"}}, "geometry": {"type": "Point", "coordinates": [141.347742894483, 35.72571119885115]}}, {"type": "Feature", "properties": {"norad_id": 30575, "name": "FENGYUN 1C DEB", "group": "fengyun-1c-debris", "lat": 23.80367552532735, "lon": 71.15507277702066, "alt_km": 787.7173254426953, "timestamp": "2025-12-10T11:33:53.662690+00:00", "meta": {"OBJECT_NAME": "FENGYUN 1C DEB", "OBJECT_ID": "1999-025ALR", "EPOCH": "2025-12-10T04:55:25.142304", "MEAN_MOTION": 14.40034751, "ECCENTRICITY": 0.0054055, "INCLINATION": 99.1697, "RA_OF_ASC_NODE": 74.945, "ARG_OF_PERICENTER": 243.9643, "MEAN_ANOMALY": 146.1455, "EPHEMERIS_TYPE": 0, "CLASSIFICATION_TYPE": "U", "NORAD_CAT_ID": 30575, "ELEMENT_SET_NO": 999, "REV_AT_EPOCH": 98181, "BSTAR": 0.0014998, "MEAN_MOTION_DOT": 4.761e-05, "MEAN_MOTION_DDOT": 0}, "tle": {"line1": "1 30575U 99025ALR 25344.20515211  .00004761  00000+0  14998-2 0  9990", "line2": "2 30575  99.1697  74.9450 0054055 243.9643 146.1455 14.40034751981814"}}, "geometry": {"type": "Point", "coordinates": [71.15507277702066, 23.80367552532735]}}, {"type": "Feature", "properties": {"norad_id": 30577, "name": "FENGYUN 1C DEB", "group": "fengyun-1c-debris", "lat": -48.85597250508622, "lon": 28.642804371829477, "alt_km": 843.0445629259439, "timestamp": "2025-12-10T11:33:53.662700+00:00", "meta": {"OBJECT_NAME": "FENGYUN 1C DEB", "OBJECT_ID": "1999-025ALT", "EPOCH": "2025-12-09T14:23:45.597120", "MEAN_MOTION": 14.11136136, "ECCENTRICITY": 0.0028597, "INCLINATION": 98.7708, "RA_OF_ASC_NODE": 17.6039, "ARG_OF_PERICENTER": 291.3522, "MEAN_ANOMALY": 220.6343, "EPHEMERIS_TYPE": 0, "CLASSIFICATION_TYPE": "U", "NORAD_CAT_ID": 30577, "ELEMENT_SET_NO": 999, "REV_AT_EPOCH": 96740, "BSTAR": 0.00076284, "MEAN_MOTION_DOT": 1.336e-05, "MEAN_MOTION_DDOT": 0}, "tle": {"line1": "1 30577U 99025ALT 25343.59983330  .00001336  00000+0  76284-3 0  9996", "line2": "2 30577  98.7708  17.6039 0028597 291.3522 220.6343 14.11136136967407"}}, "geometry": {"type": "Point", "coordinates": [28.642804371829477, -48.85597250508622]}}, {"type": "Feature", "properties": {"norad_id": 30579, "name": "FENGYUN 1C DEB", "group": "fengyun-1c-debris", "lat": -24.199261724861117, "lon": -174.77310678026944, "alt_km": 884.0672907469325, "timestamp": "2025-12-10T11:33:53.662710+00:00", "meta": {"OBJECT_NAME": "FENGYUN 1C DEB", "OBJECT_ID": "1999-025ALV", "EPOCH": "2025-12-10T00:29:24.955872", "MEAN_MOTION": 14.05244585, "ECCENTRICITY": 0.0053704, "INCLINATION": 98.807, "RA_OF_ASC_NODE": 8.7739, "ARG_OF_PERICENTER": 111.0697, "MEAN_ANOMALY": 279.6192, "EPHEMERIS_TYPE": 0, "CLASSIFICATION_TYPE": "U", "NORAD_CAT_ID": 30579, "ELEMENT_SET_NO": 999, "REV_AT_EPOCH": 96419, "BSTAR": 0.00052005, "MEAN_MOTION_DOT": 8.1e-06, "MEAN_MOTION_DDOT": 0}, "tle": {"line1": "1 30579U 99025ALV 25344.02042773  .00000810  00000+0  52005-3 0  9995", "line2": "2 30579  98.8070   8.7739 0053704 111.0697 279.6192 14.05244585964199"}}, "geometry": {"type": "Point", "coordinates": [-174.77310678026944, -24.199261724861117]}}, {"type": "Feature", "properties": {"norad_id": 30594, "name": "FENGYUN 1C DEB", "group": "fengyun-1c-debris", "lat": 23.72673119195163, "lon": -163.46768448044446, "alt_km": 764.7983839013959, "timestamp": "2025-12-10T11:33:53.662720+00:00", "meta": {"OBJECT_NAME": "FENGYUN 1C DEB", "OBJECT_ID": "1999-025ALZ", "EPOCH": "2025-12-09T08:20:49.144128", "MEAN_MOTION": 14.17336004, "ECCENTRICITY": 0.01935431, "INCLINATION": 99.1515, "RA_OF_ASC_NODE": 199.4273, "ARG_OF_PERICENTER": 325.9977, "MEAN_ANOMALY": 32.8916, "EPHEMERIS_TYPE": 0, "CLASSIFICATION_TYPE": "U", "NORAD_CAT_ID": 30594, "ELEMENT_SET_NO": 999, "REV_AT_EPOCH": 97531, "BSTAR": 0.00033162388, "MEAN_MOTION_DOT": 7.56e-06, "MEAN_MOTION_DDOT": 0}, "tle": {"line1": "1 30594U 99025ALZ 25343.34779102  .00000756  00000+0  33162-3 0  9991", "line2": "2 30594  99.1515 199.4273 0193543 325.9977  32.8916 14.17336004975318"}}, "geometry": {"type": "Point", "coordinates": [-163.46768448044446, 23.72673119195163]}}]}